[{"OBJECT_NAME":"LEMUR-2-ANDIS","OBJECT_ID":"2017-042P","EPOCH":"2026-03-09T13:25:33.116448","MEAN_MOTION":15.30557934,"ECCENTRICITY":0.0009101,"INCLINATION":97.3659,"RA_OF_ASC_NODE":249.795,"ARG_OF_PERICENTER":4.3248,"MEAN_ANOMALY":355.807,"EPHEMERIS_TYPE":0,"CLASSIFICATION_TYPE":"U","NORAD_CAT_ID":42838,"ELEMENT_SET_NO":999,"REV_AT_EPOCH":47319,"BSTAR":0.00079875,"MEAN_MOTION_DOT":0.00023598,"MEAN_MOTION_DDOT":0},{"OBJECT_NAME":"STARLINK-33554","OBJECT_ID":"2024-220R","EPOCH":"2026-03-09T10:06:29.678976","MEAN_MOTION":15.2759617,"ECCENTRICITY":0.00015562,"INCLINATION":43.0014,"RA_OF_ASC_NODE":206.7569,"ARG_OF_PERICENTER":178.2711,"MEAN_ANOMALY":181.8146,"EPHEMERIS_TYPE":0,"CLASSIFICATION_TYPE":"U","NORAD_CAT_ID":62103,"ELEMENT_SET_NO":999,"REV_AT_EPOCH":7291,"BSTAR":0.00095058717,"MEAN_MOTION_DOT":0.00026001,"MEAN_MOTION_DDOT":0}]
